{
  "type": "FeatureCollection",
  "features": [
    {
      "type": "Feature",
      "properties": {
        "norad_id": 41026,
        "name": "YAOGAN-28",
        "group": "resource",
        "lat": 73.8728058698011,
        "lon": 108.72718123128894,
        "alt_km": 476.8466201271058,
        "timestamp": "2025-12-23T11:34:47.839241+00:00",
        "meta_object_name": "YAOGAN-28",
        "meta_object_id": "2015-064A",
        "meta_epoch": "2025-12-23T04:56:56.384160",
        "meta_mean_motion": 15.24511845,
        "meta_eccentricity": 0.0012657,
        "meta_inclination": 97.2817,
        "meta_ra_of_asc_node": 134.7043,
        "meta_arg_of_pericenter": 92.8494,
        "meta_mean_anomaly": 267.4192,
        "meta_ephemeris_type": 0,
        "meta_classification_type": "U",
        "meta_norad_cat_id": 41026,
        "meta_element_set_no": 999,
        "meta_rev_at_epoch": 56384,
        "meta_bstar": 0.00036008,
        "meta_mean_motion_dot": 8.808e-05,
        "meta_mean_motion_ddot": 0,
        "tle_line1": "1 41026U 15064A   25357.20620815  .00008808  00000+0  36008-3 0  9998",
        "tle_line2": "2 41026  97.2817 134.7043 0012657  92.8494 267.4192 15.24511845563841"
      },
      "geometry": {
        "type": "Point",
        "coordinates": [
          108.72718123128894,
          73.8728058698011
        ]
      }
    },
    {
      "type": "Feature",
      "properties": {
        "norad_id": 41038,
        "name": "YAOGAN-29",
        "group": "resource",
        "lat": 7.995482681301581,
        "lon": 19.553146171124435,
        "alt_km": 622.600820709973,
        "timestamp": "2025-12-23T11:34:47.839250+00:00",
        "meta_object_name": "YAOGAN-29",
        "meta_object_id": "2015-069A",
        "meta_epoch": "2025-12-23T05:03:57.090816",
        "meta_mean_motion": 14.82891768,
        "meta_eccentricity": 7.02e-05,
        "meta_inclination": 98.0204,
        "meta_ra_of_asc_node": 20.4157,
        "meta_arg_of_pericenter": 172.0225,
        "meta_mean_anomaly": 188.1,
        "meta_ephemeris_type": 0,
        "meta_classification_type": "U",
        "meta_norad_cat_id": 41038,
        "meta_element_set_no": 999,
        "meta_rev_at_epoch": 54454,
        "meta_bstar": 3.0503e-05,
        "meta_mean_motion_dot": 1.93e-06,
        "meta_mean_motion_ddot": 0,
        "tle_line1": "1 41038U 15069A   25357.21107744  .00000193  00000+0  30503-4 0  9992",
        "tle_line2": "2 41038  98.0204  20.4157 0000702 172.0225 188.1000 14.82891768544542"
      },
      "geometry": {
        "type": "Point",
        "coordinates": [
          19.553146171124435,
          7.995482681301581
        ]
      }
    },
    {
      "type": "Feature",
      "properties": {
        "norad_id": 41167,
        "name": "KENT RIDGE 1",
        "group": "resource",
        "lat": 10.143626628474845,
        "lon": -90.57453994333785,
        "alt_km": 501.3337255209317,
        "timestamp": "2025-12-23T11:34:47.839259+00:00",
        "meta_object_name": "KENT RIDGE 1",
        "meta_object_id": "2015-077B",
        "meta_epoch": "2025-12-22T17:40:34.836384",
        "meta_mean_motion": 15.21707626,
        "meta_eccentricity": 0.00085399,
        "meta_inclination": 14.9787,
        "meta_ra_of_asc_node": 136.9576,
        "meta_arg_of_pericenter": 272.009,
        "meta_mean_anomaly": 87.9254,
        "meta_ephemeris_type": 0,
        "meta_classification_type": "U",
        "meta_norad_cat_id": 41167,
        "meta_element_set_no": 999,
        "meta_rev_at_epoch": 55416,
        "meta_bstar": 0.00015311914,
        "meta_mean_motion_dot": 4.327e-05,
        "meta_mean_motion_ddot": 0,
        "tle_line1": "1 41167U 15077B   25356.73651431  .00004327  00000+0  15312-3 0  9990",
        "tle_line2": "2 41167  14.9787 136.9576 0008539 272.0090  87.9254 15.21707626554162"
      },
      "geometry": {
        "type": "Point",
        "coordinates": [
          -90.57453994333785,
          10.143626628474845
        ]
      }
    },
    {
      "type": "Feature",
      "properties": {
        "norad_id": 41194,
        "name": "GAOFEN-4",
        "group": "resource",
        "lat": -0.18374206300314241,
        "lon": 11.676712635223211,
        "alt_km": 35798.10974738992,
        "timestamp": "2025-12-23T11:34:47.839272+00:00",
        "meta_object_name": "GAOFEN-4",
        "meta_object_id": "2015-083A",
        "meta_epoch": "2025-12-19T15:27:26.627616",
        "meta_mean_motion": 1.00273138,
        "meta_eccentricity": 0.0002945,
        "meta_inclination": 0.1878,
        "meta_ra_of_asc_node": 81.7841,
        "meta_arg_of_pericenter": 93.4275,
        "meta_mean_anomaly": 250.8523,
        "meta_ephemeris_type": 0,
        "meta_classification_type": "U",
        "meta_norad_cat_id": 41194,
        "meta_element_set_no": 999,
        "meta_rev_at_epoch": 3672,
        "meta_bstar": 0,
        "meta_mean_motion_dot": -3.11e-06,
        "meta_mean_motion_ddot": 0,
        "tle_line1": "1 41194U 15083A   25353.64405819 -.00000311  00000+0  00000+0 0  9995",
        "tle_line2": "2 41194   0.1878  81.7841 0002945  93.4275 250.8523  1.00273138 36722"
      },
      "geometry": {
        "type": "Point",
        "coordinates": [
          11.676712635223211,
          -0.18374206300314241
        ]
      }
    },
    {
      "type": "Feature",
      "properties": {
        "norad_id": 41240,
        "name": "JASON-3",
        "group": "resource",
        "lat": 55.31377216579081,
        "lon": 175.2147511743402,
        "alt_km": 1309.761617327964,
        "timestamp": "2025-12-23T11:34:47.839282+00:00",
        "meta_object_name": "JASON-3",
        "meta_object_id": "2016-002A",
        "meta_epoch": "2025-12-23T01:55:39.014688",
        "meta_mean_motion": 12.8762696,
        "meta_eccentricity": 0.000726,
        "meta_inclination": 66.0402,
        "meta_ra_of_asc_node": 136.0841,
        "meta_arg_of_pericenter": 271.3884,
        "meta_mean_anomaly": 88.6303,
        "meta_ephemeris_type": 0,
        "meta_classification_type": "U",
        "meta_norad_cat_id": 41240,
        "meta_element_set_no": 999,
        "meta_rev_at_epoch": 46457,
        "meta_bstar": 6.3776e-05,
        "meta_mean_motion_dot": -4.6e-07,
        "meta_mean_motion_ddot": 0,
        "tle_line1": "1 41240U 16002A   25357.08031267 -.00000046  00000+0  63776-4 0  9992",
        "tle_line2": "2 41240  66.0402 136.0841 0007260 271.3884  88.6303 12.87626960464573"
      },
      "geometry": {
        "type": "Point",
        "coordinates": [
          175.2147511743402,
          55.31377216579081
        ]
      }
    },
    {
      "type": "Feature",
      "properties": {
        "norad_id": 41335,
        "name": "SENTINEL-3A",
        "group": "resource",
        "lat": 58.05816299908996,
        "lon": 48.246659840412995,
        "alt_km": 796.5150085560117,
        "timestamp": "2025-12-23T11:34:47.839291+00:00",
        "meta_object_name": "SENTINEL-3A",
        "meta_object_id": "2016-011A",
        "meta_epoch": "2025-12-23T02:53:17.623968",
        "meta_mean_motion": 14.26734619,
        "meta_eccentricity": 8.93e-05,
        "meta_inclination": 98.6299,
        "meta_ra_of_asc_node": 61.988,
        "meta_arg_of_pericenter": 95.4388,
        "meta_mean_anomaly": 264.6894,
        "meta_ephemeris_type": 0,
        "meta_classification_type": "U",
        "meta_norad_cat_id": 41335,
        "meta_element_set_no": 999,
        "meta_rev_at_epoch": 51295,
        "meta_bstar": 7.9529e-05,
        "meta_mean_motion_dot": 1.49e-06,
        "meta_mean_motion_ddot": 0,
        "tle_line1": "1 41335U 16011A   25357.12034287  .00000149  00000+0  79529-4 0  9993",
        "tle_line2": "2 41335  98.6299  61.9880 0000893  95.4388 264.6894 14.26734619512954"
      },
      "geometry": {
        "type": "Point",
        "coordinates": [
          48.246659840412995,
          58.05816299908996
        ]
      }
    },
    {
      "type": "Feature",
      "properties": {
        "norad_id": 41556,
        "name": "ZIYUAN 3-02 (ZY 3-02)",
        "group": "resource",
        "lat": -40.50923210779019,
        "lon": -114.90786148407182,
        "alt_km": 501.31841695619823,
        "timestamp": "2025-12-23T11:34:47.839300+00:00",
        "meta_object_name": "ZIYUAN 3-02 (ZY 3-02)",
        "meta_object_id": "2016-033A",
        "meta_epoch": "2025-12-23T04:17:49.758432",
        "meta_mean_motion": 15.2119601,
        "meta_eccentricity": 0.0011276,
        "meta_inclination": 97.403,
        "meta_ra_of_asc_node": 71.1717,
        "meta_arg_of_pericenter": 207.0977,
        "meta_mean_anomaly": 152.9672,
        "meta_ephemeris_type": 0,
        "meta_classification_type": "U",
        "meta_norad_cat_id": 41556,
        "meta_element_set_no": 999,
        "meta_rev_at_epoch": 53122,
        "meta_bstar": 0.00035869,
        "meta_mean_motion_dot": 7.946e-05,
        "meta_mean_motion_ddot": 0,
        "tle_line1": "1 41556U 16033A   25357.17904813  .00007946  00000+0  35869-3 0  9998",
        "tle_line2": "2 41556  97.4030  71.1717 0011276 207.0977 152.9672 15.21196010531220"
      },
      "geometry": {
        "type": "Point",
        "coordinates": [
          -114.90786148407182,
          -40.50923210779019
        ]
      }
    }
  ]
}